[{"OBJECT_NAME":"STARLINK-6357","OBJECT_ID":"2023-078S","EPOCH":"2026-03-09T23:18:07.793856","MEAN_MOTION":14.98327229,"ECCENTRICITY":0.00028075,"INCLINATION":70.0004,"RA_OF_ASC_NODE":323.8294,"ARG_OF_PERICENTER":259.551,"MEAN_ANOMALY":100.5333,"EPHEMERIS_TYPE":0,"CLASSIFICATION_TYPE":"U","NORAD_CAT_ID":56783,"ELEMENT_SET_NO":999,"REV_AT_EPOCH":15321,"BSTAR":-4.3098428e-5,"MEAN_MOTION_DOT":-6.07e-6,"MEAN_MOTION_DDOT":0},{"OBJECT_NAME":"SL-8 DEB","OBJECT_ID":"1971-114C","EPOCH":"2026-03-09T10:06:38.914272","MEAN_MOTION":14.97936297,"ECCENTRICITY":0.00069633,"INCLINATION":74.0033,"RA_OF_ASC_NODE":186.861,"ARG_OF_PERICENTER":298.1447,"MEAN_ANOMALY":61.9034,"EPHEMERIS_TYPE":0,"CLASSIFICATION_TYPE":"U","NORAD_CAT_ID":5778,"ELEMENT_SET_NO":999,"REV_AT_EPOCH":88447,"BSTAR":0.0010014796,"MEAN_MOTION_DOT":0.00011794,"MEAN_MOTION_DDOT":0}]
